[{"OBJECT_NAME":"ONEWEB-0340","OBJECT_ID":"2021-083W","EPOCH":"2026-03-09T19:28:59.995200","MEAN_MOTION":13.18686539,"ECCENTRICITY":0.00017287,"INCLINATION":87.9253,"RA_OF_ASC_NODE":355.1897,"ARG_OF_PERICENTER":75.806,"MEAN_ANOMALY":284.3264,"EPHEMERIS_TYPE":0,"CLASSIFICATION_TYPE":"U","NORAD_CAT_ID":49206,"ELEMENT_SET_NO":999,"REV_AT_EPOCH":21687,"BSTAR":2.8657305e-5,"MEAN_MOTION_DOT":2.4e-7,"MEAN_MOTION_DDOT":0},{"OBJECT_NAME":"SL-14 DEB","OBJECT_ID":"1991-056CB","EPOCH":"2026-03-09T10:11:26.778336","MEAN_MOTION":13.13032423,"ECCENTRICITY":0.00465967,"INCLINATION":82.5756,"RA_OF_ASC_NODE":228.2318,"ARG_OF_PERICENTER":220.5966,"MEAN_ANOMALY":139.1677,"EPHEMERIS_TYPE":0,"CLASSIFICATION_TYPE":"U","NORAD_CAT_ID":45337,"ELEMENT_SET_NO":999,"REV_AT_EPOCH":28826,"BSTAR":0.0026958126,"MEAN_MOTION_DOT":9.96e-6,"MEAN_MOTION_DDOT":0}]
